CCSDS_OMM_VERS = 2.0
CREATION_DATE  = 
ORIGINATOR     = 

OBJECT_NAME    = IDEFIX & ARIANE 42P R/B
OBJECT_ID      = 2002-021B
CENTER_NAME    = EARTH
REF_FRAME      = TEME
TIME_SYSTEM    = UTC
MEAN_ELEMENT_THEORY = SGP/SGP4

EPOCH          = 2026-01-02T05:03:13.487328
MEAN_MOTION    = 14.30968961
ECCENTRICITY   = .00123982
INCLINATION    = 98.5808
RA_OF_ASC_NODE = 301.6382
ARG_OF_PERICENTER = 27.7863
MEAN_ANOMALY   = 332.3980

EPHEMERIS_TYPE = 0
CLASSIFICATION_TYPE = U
NORAD_CAT_ID   = 27422
ELEMENT_SET_NO = 999
REV_AT_EPOCH   = 23451
BSTAR          = .26055492E-3
MEAN_MOTION_DOT = .642E-5
MEAN_MOTION_DDOT = 0

CCSDS_OMM_VERS = 2.0
CREATION_DATE  = 
ORIGINATOR     = 

OBJECT_NAME    = AQUA
OBJECT_ID      = 2002-022A
CENTER_NAME    = EARTH
REF_FRAME      = TEME
TIME_SYSTEM    = UTC
MEAN_ELEMENT_THEORY = SGP/SGP4

EPOCH          = 2025-12-31T22:14:01.933728
MEAN_MOTION    = 14.61783896
ECCENTRICITY   = .0001962
INCLINATION    = 98.4058
RA_OF_ASC_NODE = 327.1196
ARG_OF_PERICENTER = 94.7781
MEAN_ANOMALY   = 340.6230

EPHEMERIS_TYPE = 0
CLASSIFICATION_TYPE = U
NORAD_CAT_ID   = 27424
ELEMENT_SET_NO = 999
REV_AT_EPOCH   = 25883
BSTAR          = .42628E-3
MEAN_MOTION_DOT = .2078E-4
MEAN_MOTION_DDOT = 0

CCSDS_OMM_VERS = 2.0
CREATION_DATE  = 
ORIGINATOR     = 

OBJECT_NAME    = CZ-4B R/B
OBJECT_ID      = 2002-024C
CENTER_NAME    = EARTH
REF_FRAME      = TEME
TIME_SYSTEM    = UTC
MEAN_ELEMENT_THEORY = SGP/SGP4

EPOCH          = 2026-01-02T03:50:20.363424
MEAN_MOTION    = 14.14533029
ECCENTRICITY   = .00497145
INCLINATION    = 98.8968
RA_OF_ASC_NODE = 55.8574
ARG_OF_PERICENTER = 211.0920
MEAN_ANOMALY   = 217.3644

EPHEMERIS_TYPE = 0
CLASSIFICATION_TYPE = U
NORAD_CAT_ID   = 27432
ELEMENT_SET_NO = 999
REV_AT_EPOCH   = 21983
BSTAR          = .93590451E-4
MEAN_MOTION_DOT = .137E-5
MEAN_MOTION_DDOT = 0

CCSDS_OMM_VERS = 2.0
CREATION_DATE  = 
ORIGINATOR     = 

OBJECT_NAME    = MIDORI II (ADEOS-II)
OBJECT_ID      = 2002-056A
CENTER_NAME    = EARTH
REF_FRAME      = TEME
TIME_SYSTEM    = UTC
MEAN_ELEMENT_THEORY = SGP/SGP4

EPOCH          = 2026-01-02T07:08:53.953152
MEAN_MOTION    = 14.29224744
ECCENTRICITY   = .00011961
INCLINATION    = 98.7663
RA_OF_ASC_NODE = 320.3650
ARG_OF_PERICENTER = 137.3727
MEAN_ANOMALY   = 222.7548

EPHEMERIS_TYPE = 0
CLASSIFICATION_TYPE = U
NORAD_CAT_ID   = 27597
ELEMENT_SET_NO = 999
REV_AT_EPOCH   = 20081
BSTAR          = .29528007E-3
MEAN_MOTION_DOT = .705E-5
MEAN_MOTION_DDOT = 0

CCSDS_OMM_VERS = 2.0
CREATION_DATE  = 
ORIGINATOR     = 

OBJECT_NAME    = H-2A R/B
OBJECT_ID      = 2002-056E
CENTER_NAME    = EARTH
REF_FRAME      = TEME
TIME_SYSTEM    = UTC
MEAN_ELEMENT_THEORY = SGP/SGP4

EPOCH          = 2026-01-01T22:05:44.834784
MEAN_MOTION    = 14.33698567
ECCENTRICITY   = .0070397
INCLINATION    = 98.3091
RA_OF_ASC_NODE = 324.8769
ARG_OF_PERICENTER = 1.5480
MEAN_ANOMALY   = 63.3058

EPHEMERIS_TYPE = 0
CLASSIFICATION_TYPE = U
NORAD_CAT_ID   = 27601
ELEMENT_SET_NO = 999
REV_AT_EPOCH   = 20454
BSTAR          = .28877E-3
MEAN_MOTION_DOT = .782E-5
MEAN_MOTION_DDOT = 0

CCSDS_OMM_VERS = 2.0
CREATION_DATE  = 
ORIGINATOR     = 

OBJECT_NAME    = CZ-4B R/B
OBJECT_ID      = 2003-049C
CENTER_NAME    = EARTH
REF_FRAME      = TEME
TIME_SYSTEM    = UTC
MEAN_ELEMENT_THEORY = SGP/SGP4

EPOCH          = 2026-01-01T22:51:17.098272
MEAN_MOTION    = 14.54933366
ECCENTRICITY   = .0049306
INCLINATION    = 98.6802
RA_OF_ASC_NODE = 354.2814
ARG_OF_PERICENTER = 75.6689
MEAN_ANOMALY   = 284.9974

EPHEMERIS_TYPE = 0
CLASSIFICATION_TYPE = U
NORAD_CAT_ID   = 28059
ELEMENT_SET_NO = 999
REV_AT_EPOCH   = 17689
BSTAR          = .20463E-3
MEAN_MOTION_DOT = .843E-5
MEAN_MOTION_DDOT = 0

CCSDS_OMM_VERS = 2.0
CREATION_DATE  = 
ORIGINATOR     = 

OBJECT_NAME    = CZ-2C R/B
OBJECT_ID      = 2004-012C
CENTER_NAME    = EARTH
REF_FRAME      = TEME
TIME_SYSTEM    = UTC
MEAN_ELEMENT_THEORY = SGP/SGP4

EPOCH          = 2026-01-02T04:27:37.221408
MEAN_MOTION    = 15.57289736
ECCENTRICITY   = .00167341
INCLINATION    = 97.7388
RA_OF_ASC_NODE = 61.5170
ARG_OF_PERICENTER = 191.8406
MEAN_ANOMALY   = 168.2458

EPHEMERIS_TYPE = 0
CLASSIFICATION_TYPE = U
NORAD_CAT_ID   = 28222
ELEMENT_SET_NO = 999
REV_AT_EPOCH   = 19390
BSTAR          = .80774594E-3
MEAN_MOTION_DOT = .59525E-3
MEAN_MOTION_DDOT = 0

CCSDS_OMM_VERS = 2.0
CREATION_DATE  = 
ORIGINATOR     = 

OBJECT_NAME    = SL-16 R/B
OBJECT_ID      = 2004-021B
CENTER_NAME    = EARTH
REF_FRAME      = TEME
TIME_SYSTEM    = UTC
MEAN_ELEMENT_THEORY = SGP/SGP4

EPOCH          = 2026-01-02T06:28:34.938048
MEAN_MOTION    = 14.14586035
ECCENTRICITY   = .0004091
INCLINATION    = 71.0013
RA_OF_ASC_NODE = 11.8802
ARG_OF_PERICENTER = 165.5988
MEAN_ANOMALY   = 194.5252

EPHEMERIS_TYPE = 0
CLASSIFICATION_TYPE = U
NORAD_CAT_ID   = 28353
ELEMENT_SET_NO = 999
REV_AT_EPOCH   = 11344
BSTAR          = .2559138E-3
MEAN_MOTION_DOT = .444E-5
MEAN_MOTION_DDOT = 0

CCSDS_OMM_VERS = 2.0
CREATION_DATE  = 
ORIGINATOR     = 

OBJECT_NAME    = CZ-4B R/B
OBJECT_ID      = 2004-035C
CENTER_NAME    = EARTH
REF_FRAME      = TEME
TIME_SYSTEM    = UTC
MEAN_ELEMENT_THEORY = SGP/SGP4

EPOCH          = 2026-01-02T07:50:57.469056
MEAN_MOTION    = 15.27768099
ECCENTRICITY   = .00323058
INCLINATION    = 97.3581
RA_OF_ASC_NODE = 37.3989
ARG_OF_PERICENTER = 201.3560
MEAN_ANOMALY   = 158.6333

EPHEMERIS_TYPE = 0
CLASSIFICATION_TYPE = U
NORAD_CAT_ID   = 28415
ELEMENT_SET_NO = 999
REV_AT_EPOCH   = 16977
BSTAR          = .50119854E-3
MEAN_MOTION_DOT = .1374E-3
MEAN_MOTION_DDOT = 0

CCSDS_OMM_VERS = 2.0
CREATION_DATE  = 
ORIGINATOR     = 

OBJECT_NAME    = CZ-2C R/B
OBJECT_ID      = 2004-046B
CENTER_NAME    = EARTH
REF_FRAME      = TEME
TIME_SYSTEM    = UTC
MEAN_ELEMENT_THEORY = SGP/SGP4

EPOCH          = 2026-01-02T05:21:38.346336
MEAN_MOTION    = 14.26957121
ECCENTRICITY   = .01393813
INCLINATION    = 98.1997
RA_OF_ASC_NODE = 281.3296
ARG_OF_PERICENTER = 351.9299
MEAN_ANOMALY   = 7.9641

EPHEMERIS_TYPE = 0
CLASSIFICATION_TYPE = U
NORAD_CAT_ID   = 28480
ELEMENT_SET_NO = 999
REV_AT_EPOCH   = 9902
BSTAR          = .23840835E-3
MEAN_MOTION_DOT = .6E-5
MEAN_MOTION_DDOT = 0

CCSDS_OMM_VERS = 2.0
CREATION_DATE  = 
ORIGINATOR     = 

OBJECT_NAME    = ARIANE 5 R/B
OBJECT_ID      = 2004-049H
CENTER_NAME    = EARTH
REF_FRAME      = TEME
TIME_SYSTEM    = UTC
MEAN_ELEMENT_THEORY = SGP/SGP4

EPOCH          = 2026-01-02T00:01:39.284832
MEAN_MOTION    = 14.85079337
ECCENTRICITY   = .0083924
INCLINATION    = 98.2526
RA_OF_ASC_NODE = 168.0112
ARG_OF_PERICENTER = 206.5199
MEAN_ANOMALY   = 153.1710

EPHEMERIS_TYPE = 0
CLASSIFICATION_TYPE = U
NORAD_CAT_ID   = 28499
ELEMENT_SET_NO = 999
REV_AT_EPOCH   = 13589
BSTAR          = .31434815E-3
MEAN_MOTION_DOT = .2797E-4
MEAN_MOTION_DDOT = 0

CCSDS_OMM_VERS = 2.0
CREATION_DATE  = 
ORIGINATOR     = 

OBJECT_NAME    = CZ-2D R/B
OBJECT_ID      = 2005-024B
CENTER_NAME    = EARTH
REF_FRAME      = TEME
TIME_SYSTEM    = UTC
MEAN_ELEMENT_THEORY = SGP/SGP4

EPOCH          = 2026-01-02T00:11:48.131808
MEAN_MOTION    = 15.54566837
ECCENTRICITY   = .0003038
INCLINATION    = 97.3617
RA_OF_ASC_NODE = 15.0034
ARG_OF_PERICENTER = 263.8340
MEAN_ANOMALY   = 96.2568

EPHEMERIS_TYPE = 0
CLASSIFICATION_TYPE = U
NORAD_CAT_ID   = 28738
ELEMENT_SET_NO = 999
REV_AT_EPOCH   = 12940
BSTAR          = .75957E-3
MEAN_MOTION_DOT = .50271E-3
MEAN_MOTION_DDOT = 0

