IDEFIX & ARIANE 42P R/B 
1 27422U 02021B   26002.21057277  .00000642  00000+0  26055-3 0  9995
2 27422  98.5808 301.6382 0012398  27.7863 332.3980 14.30968961234516
AQUA                    
1 27424U 02022A   25365.92641127  .00002078  00000+0  42628-3 0  9999
2 27424  98.4058 327.1196 0001962  94.7781 340.6230 14.61783896258835
CZ-4B R/B               
1 27432U 02024C   26002.15995791  .00000137  00000+0  93590-4 0  9992
2 27432  98.8968  55.8574 0049714 211.0920 217.3644 14.14533029219834
MIDORI II (ADEOS-II)    
1 27597U 02056A   26002.29784668  .00000705  00000+0  29528-3 0  9993
2 27597  98.7663 320.3650 0001196 137.3727 222.7548 14.29224744200817
H-2A R/B                
1 27601U 02056E   26001.92065781  .00000782  00000+0  28877-3 0  9997
2 27601  98.3091 324.8769 0070397   1.5480  63.3058 14.33698567204543
CZ-4B R/B               
1 28059U 03049C   26001.95228123  .00000843  00000+0  20463-3 0  9993
2 28059  98.6802 354.2814 0049306  75.6689 284.9974 14.54933366176897
CZ-2C R/B               
1 28222U 04012C   26002.18584747  .00059525  00000+0  80775-3 0  9992
2 28222  97.7388  61.5170 0016734 191.8406 168.2458 15.57289736193909
SL-16 R/B               
1 28353U 04021B   26002.26984882  .00000444  00000+0  25591-3 0  9991
2 28353  71.0013  11.8802 0004091 165.5988 194.5252 14.14586035113449
CZ-4B R/B               
1 28415U 04035C   26002.32705404  .00013740  00000+0  50120-3 0  9992
2 28415  97.3581  37.3989 0032305 201.3560 158.6333 15.27768099169777
CZ-2C R/B               
1 28480U 04046B   26002.22336049  .00000600  00000+0  23841-3 0  9991
2 28480  98.1997 281.3296 0139381 351.9299   7.9641 14.26957121 99026
ARIANE 5 R/B            
1 28499U 04049H   26002.00114913  .00002797  00000+0  31435-3 0  9991
2 28499  98.2526 168.0112 0083924 206.5199 153.1710 14.85079337135894
CZ-2D R/B               
1 28738U 05024B   26002.00819597  .00050271  00000+0  75957-3 0  9998
2 28738  97.3617  15.0034 0003038 263.8340  96.2568 15.54566837129408
